[{"OBJECT_NAME":"ATLAS 5 CENTAUR DEB","OBJECT_ID":"2018-079GP","EPOCH":"2026-03-06T10:47:14.992512","MEAN_MOTION":1.72872099,"ECCENTRICITY":0.45738721,"INCLINATION":13.1636,"RA_OF_ASC_NODE":67.0623,"ARG_OF_PERICENTER":242.9536,"MEAN_ANOMALY":63.6924,"EPHEMERIS_TYPE":0,"CLASSIFICATION_TYPE":"U","NORAD_CAT_ID":52045,"ELEMENT_SET_NO":999,"REV_AT_EPOCH":2890,"BSTAR":0,"MEAN_MOTION_DOT":-1.27e-6,"MEAN_MOTION_DDOT":0},{"OBJECT_NAME":"MERIDIAN 10","OBJECT_ID":"2022-030A","EPOCH":"2026-03-05T18:57:24.852672","MEAN_MOTION":2.00610842,"ECCENTRICITY":0.67587016,"INCLINATION":62.6647,"RA_OF_ASC_NODE":151.8349,"ARG_OF_PERICENTER":272.9562,"MEAN_ANOMALY":17.8252,"EPHEMERIS_TYPE":0,"CLASSIFICATION_TYPE":"U","NORAD_CAT_ID":52145,"ELEMENT_SET_NO":999,"REV_AT_EPOCH":2896,"BSTAR":0,"MEAN_MOTION_DOT":2.59e-6,"MEAN_MOTION_DDOT":0},{"OBJECT_NAME":"FREGAT R/B","OBJECT_ID":"2022-030B","EPOCH":"2026-02-27T07:25:24.601728","MEAN_MOTION":2.00081982,"ECCENTRICITY":0.68380508,"INCLINATION":62.6531,"RA_OF_ASC_NODE":147.1094,"ARG_OF_PERICENTER":274.4825,"MEAN_ANOMALY":16.6448,"EPHEMERIS_TYPE":0,"CLASSIFICATION_TYPE":"U","NORAD_CAT_ID":52146,"ELEMENT_SET_NO":999,"REV_AT_EPOCH":2881,"BSTAR":0,"MEAN_MOTION_DOT":6.41e-6,"MEAN_MOTION_DDOT":0},{"OBJECT_NAME":"ZHONGXING-6D","OBJECT_ID":"2022-038A","EPOCH":"2026-03-06T04:43:48.131040","MEAN_MOTION":1.00271514,"ECCENTRICITY":0.0002157,"INCLINATION":0.0405,"RA_OF_ASC_NODE":244.5748,"ARG_OF_PERICENTER":63.9143,"MEAN_ANOMALY":51.4642,"EPHEMERIS_TYPE":0,"CLASSIFICATION_TYPE":"U","NORAD_CAT_ID":52255,"ELEMENT_SET_NO":999,"REV_AT_EPOCH":1439,"BSTAR":0,"MEAN_MOTION_DOT":-3.59e-6,"MEAN_MOTION_DDOT":0},{"OBJECT_NAME":"NILESAT 301","OBJECT_ID":"2022-061A","EPOCH":"2026-03-05T22:31:21.469152","MEAN_MOTION":1.00271675,"ECCENTRICITY":0.00056426,"INCLINATION":0.0244,"RA_OF_ASC_NODE":337.5275,"ARG_OF_PERICENTER":14.9296,"MEAN_ANOMALY":142.0897,"EPHEMERIS_TYPE":0,"CLASSIFICATION_TYPE":"U","NORAD_CAT_ID":52817,"ELEMENT_SET_NO":999,"REV_AT_EPOCH":1370,"BSTAR":0,"MEAN_MOTION_DOT":0,"MEAN_MOTION_DDOT":0},{"OBJECT_NAME":"FALCON 9 R/B","OBJECT_ID":"2022-061B","EPOCH":"2026-03-06T09:11:20.836320","MEAN_MOTION":1.81960457,"ECCENTRICITY":0.76359177,"INCLINATION":18.7934,"RA_OF_ASC_NODE":2.3267,"ARG_OF_PERICENTER":198.4838,"MEAN_ANOMALY":99.6198,"EPHEMERIS_TYPE":0,"CLASSIFICATION_TYPE":"U","NORAD_CAT_ID":52818,"ELEMENT_SET_NO":999,"REV_AT_EPOCH":2445,"BSTAR":0.0018544191,"MEAN_MOTION_DOT":1.093e-5,"MEAN_MOTION_DDOT":0},{"OBJECT_NAME":"CMS-02 (GSAT 24)","OBJECT_ID":"2022-067A","EPOCH":"2026-03-06T19:29:17.674368","MEAN_MOTION":1.00272036,"ECCENTRICITY":0.0002509,"INCLINATION":0.0416,"RA_OF_ASC_NODE":250.3858,"ARG_OF_PERICENTER":48.043,"MEAN_ANOMALY":241.4334,"EPHEMERIS_TYPE":0,"CLASSIFICATION_TYPE":"U","NORAD_CAT_ID":52903,"ELEMENT_SET_NO":999,"REV_AT_EPOCH":1358,"BSTAR":0,"MEAN_MOTION_DOT":-1.68e-6,"MEAN_MOTION_DDOT":0},{"OBJECT_NAME":"MEASAT 3D","OBJECT_ID":"2022-067B","EPOCH":"2026-03-06T02:24:49.076064","MEAN_MOTION":1.00270669,"ECCENTRICITY":0.00030889,"INCLINATION":0.056,"RA_OF_ASC_NODE":310.0391,"ARG_OF_PERICENTER":20.6173,"MEAN_ANOMALY":320.8494,"EPHEMERIS_TYPE":0,"CLASSIFICATION_TYPE":"U","NORAD_CAT_ID":52904,"ELEMENT_SET_NO":999,"REV_AT_EPOCH":1361,"BSTAR":0,"MEAN_MOTION_DOT":-2.47e-6,"MEAN_MOTION_DDOT":0},{"OBJECT_NAME":"SES-22","OBJECT_ID":"2022-071A","EPOCH":"2026-03-06T12:31:38.708256","MEAN_MOTION":1.00269342,"ECCENTRICITY":0.00010503,"INCLINATION":0.0176,"RA_OF_ASC_NODE":158.0601,"ARG_OF_PERICENTER":187.6317,"MEAN_ANOMALY":227.4684,"EPHEMERIS_TYPE":0,"CLASSIFICATION_TYPE":"U","NORAD_CAT_ID":52933,"ELEMENT_SET_NO":999,"REV_AT_EPOCH":649,"BSTAR":0,"MEAN_MOTION_DOT":0,"MEAN_MOTION_DDOT":0},{"OBJECT_NAME":"WFOV (USA 332)","OBJECT_ID":"2022-073A","EPOCH":"2026-03-06T19:39:31.692384","MEAN_MOTION":1.00273799,"ECCENTRICITY":0.0001576,"INCLINATION":3.448,"RA_OF_ASC_NODE":79.8511,"ARG_OF_PERICENTER":219.9581,"MEAN_ANOMALY":278.8608,"EPHEMERIS_TYPE":0,"CLASSIFICATION_TYPE":"U","NORAD_CAT_ID":52940,"ELEMENT_SET_NO":999,"REV_AT_EPOCH":1334,"BSTAR":0,"MEAN_MOTION_DOT":-3.65e-6,"MEAN_MOTION_DDOT":0},{"OBJECT_NAME":"ATLAS 5 CENTAUR DEB","OBJECT_ID":"2018-079GX","EPOCH":"2026-03-06T09:35:31.748064","MEAN_MOTION":1.71414193,"ECCENTRICITY":0.45451097,"INCLINATION":12.6864,"RA_OF_ASC_NODE":76.5723,"ARG_OF_PERICENTER":228.8903,"MEAN_ANOMALY":82.0083,"EPHEMERIS_TYPE":0,"CLASSIFICATION_TYPE":"U","NORAD_CAT_ID":52973,"ELEMENT_SET_NO":999,"REV_AT_EPOCH":2866,"BSTAR":0,"MEAN_MOTION_DOT":-1.18e-6,"MEAN_MOTION_DDOT":0},{"OBJECT_NAME":"TIANLIAN 2-03","OBJECT_ID":"2022-078A","EPOCH":"2026-03-05T02:53:38.857632","MEAN_MOTION":1.00272188,"ECCENTRICITY":0.0003303,"INCLINATION":0.4065,"RA_OF_ASC_NODE":73.0633,"ARG_OF_PERICENTER":253.165,"MEAN_ANOMALY":250.6268,"EPHEMERIS_TYPE":0,"CLASSIFICATION_TYPE":"U","NORAD_CAT_ID":53100,"ELEMENT_SET_NO":999,"REV_AT_EPOCH":1350,"BSTAR":0,"MEAN_MOTION_DOT":6.3e-7,"MEAN_MOTION_DDOT":0},{"OBJECT_NAME":"SBIRS GEO-6 (USA 336)","OBJECT_ID":"2022-092A","EPOCH":"2026-03-05T04:23:20.565024","MEAN_MOTION":1.0027149,"ECCENTRICITY":0.000228,"INCLINATION":3.4362,"RA_OF_ASC_NODE":315.8451,"ARG_OF_PERICENTER":24.4419,"MEAN_ANOMALY":27.4444,"EPHEMERIS_TYPE":0,"CLASSIFICATION_TYPE":"U","NORAD_CAT_ID":53355,"ELEMENT_SET_NO":999,"REV_AT_EPOCH":1319,"BSTAR":0,"MEAN_MOTION_DOT":-3.02e-6,"MEAN_MOTION_DDOT":0},{"OBJECT_NAME":"EUTELSAT KONNECT VHTS","OBJECT_ID":"2022-110A","EPOCH":"2026-03-05T19:08:42.058464","MEAN_MOTION":1.00271589,"ECCENTRICITY":0.00033156,"INCLINATION":0.058,"RA_OF_ASC_NODE":103.5481,"ARG_OF_PERICENTER":222.395,"MEAN_ANOMALY":127.4443,"EPHEMERIS_TYPE":0,"CLASSIFICATION_TYPE":"U","NORAD_CAT_ID":53765,"ELEMENT_SET_NO":999,"REV_AT_EPOCH":579,"BSTAR":0,"MEAN_MOTION_DOT":1.0e-7,"MEAN_MOTION_DDOT":0},{"OBJECT_NAME":"ARIANE 5 R/B","OBJECT_ID":"2022-110B","EPOCH":"2026-03-06T14:13:14.826144","MEAN_MOTION":1.5443206,"ECCENTRICITY":0.7918494,"INCLINATION":4.5415,"RA_OF_ASC_NODE":234.3602,"ARG_OF_PERICENTER":17.7352,"MEAN_ANOMALY":358.5964,"EPHEMERIS_TYPE":0,"CLASSIFICATION_TYPE":"U","NORAD_CAT_ID":53766,"ELEMENT_SET_NO":999,"REV_AT_EPOCH":1004,"BSTAR":0.00041763,"MEAN_MOTION_DOT":2.13e-5,"MEAN_MOTION_DDOT":0},{"OBJECT_NAME":"ZHONGXING-1E","OBJECT_ID":"2022-112A","EPOCH":"2026-03-06T14:20:39.767136","MEAN_MOTION":1.00272248,"ECCENTRICITY":0.00029465,"INCLINATION":0.0666,"RA_OF_ASC_NODE":295.6707,"ARG_OF_PERICENTER":2.5708,"MEAN_ANOMALY":162.5736,"EPHEMERIS_TYPE":0,"CLASSIFICATION_TYPE":"U","NORAD_CAT_ID":53813,"ELEMENT_SET_NO":999,"REV_AT_EPOCH":1282,"BSTAR":0,"MEAN_MOTION_DOT":-1.53e-6,"MEAN_MOTION_DDOT":0},{"OBJECT_NAME":"SES-20","OBJECT_ID":"2022-123A","EPOCH":"2026-03-05T08:02:38.801184","MEAN_MOTION":1.00271408,"ECCENTRICITY":0.0001608,"INCLINATION":0.0163,"RA_OF_ASC_NODE":109.4128,"ARG_OF_PERICENTER":314.8769,"MEAN_ANOMALY":116.3178,"EPHEMERIS_TYPE":0,"CLASSIFICATION_TYPE":"U","NORAD_CAT_ID":53960,"ELEMENT_SET_NO":999,"REV_AT_EPOCH":1249,"BSTAR":0,"MEAN_MOTION_DOT":-1.09e-6,"MEAN_MOTION_DDOT":0}]
