ATLAS 5 CENTAUR DEB     
1 52045U 18079GP  26065.44947908 -.00000127  00000+0  00000+0 0  9994
2 52045  13.1636  67.0623 4573872 242.9536  63.6924  1.72872099 28903
MERIDIAN 10             
1 52145U 22030A   26064.78987098  .00000259  00000+0  00000+0 0  9992
2 52145  62.6647 151.8349 6758701 272.9562  17.8252  2.00610842 28961
FREGAT R/B              
1 52146U 22030B   26058.30931252  .00000641  00000+0  00000+0 0  9990
2 52146  62.6531 147.1094 6838050 274.4825  16.6448  2.00081982 28819
ZHONGXING-6D            
1 52255U 22038A   26065.19708485 -.00000359  00000+0  00000+0 0  9991
2 52255   0.0405 244.5748 0002157  63.9143  51.4642  1.00271514 14395
NILESAT 301             
1 52817U 22061A   26064.93844293  .00000000  00000+0  00000+0 0  9992
2 52817   0.0244 337.5275 0005642  14.9296 142.0897  1.00271675 13706
FALCON 9 R/B            
1 52818U 22061B   26065.38288005  .00001093  00000+0  18544-2 0  9994
2 52818  18.7934   2.3267 7635917 198.4838  99.6198  1.81960457 24455
CMS-02 (GSAT 24)        
1 52903U 22067A   26065.81201012 -.00000168  00000+0  00000+0 0  9994
2 52903   0.0416 250.3858 0002509  48.0430 241.4334  1.00272036 13587
MEASAT 3D               
1 52904U 22067B   26065.10056801 -.00000247  00000+0  00000+0 0  9999
2 52904   0.0560 310.0391 0003088  20.6173 320.8494  1.00270669 13610
SES-22                  
1 52933U 22071A   26065.52197579  .00000000  00000+0  00000+0 0  9996
2 52933   0.0176 158.0601 0001050 187.6317 227.4684  1.00269342  6497
WFOV (USA 332)          
1 52940U 22073A   26065.81911681 -.00000365  00000+0  00000+0 0  9991
2 52940   3.4480  79.8511 0001576 219.9581 278.8608  1.00273799 13344
ATLAS 5 CENTAUR DEB     
1 52973U 18079GX  26065.39967301 -.00000118  00000+0  00000+0 0  9997
2 52973  12.6864  76.5723 4545109 228.8903  82.0083  1.71414193 28669
TIANLIAN 2-03           
1 53100U 22078A   26064.12058863  .00000063  00000+0  00000+0 0  9996
2 53100   0.4065  73.0633 0003303 253.1650 250.6268  1.00272188 13506
SBIRS GEO-6 (USA 336)   
1 53355U 22092A   26064.18287691 -.00000302  00000+0  00000+0 0  9990
2 53355   3.4362 315.8451 0002280  24.4419  27.4444  1.00271490 13197
EUTELSAT KONNECT VHTS   
1 53765U 22110A   26064.79770901  .00000010  00000+0  00000+0 0  9999
2 53765   0.0580 103.5481 0003315 222.3950 127.4443  1.00271589  5797
ARIANE 5 R/B            
1 53766U 22110B   26065.59253271  .00002130  00000+0  41763-3 0  9995
2 53766   4.5415 234.3602 7918494  17.7352 358.5964  1.54432060 10045
ZHONGXING-1E            
1 53813U 22112A   26065.59768249 -.00000153  00000+0  00000+0 0  9995
2 53813   0.0666 295.6707 0002946   2.5708 162.5736  1.00272248 12828
SES-20                  
1 53960U 22123A   26064.33517131 -.00000109  00000+0  00000+0 0  9994
2 53960   0.0163 109.4128 0001608 314.8769 116.3178  1.00271408 12499
